SENTINEL-6              
1 46984U 20086A   23274.55109321 -.00000066  00000+0 -22671-4 0  9996
2 46984  66.0440  30.5345 0007843 268.0899  91.9218 12.80929835133573
